STARLINK-1736           
1 46585U 20070BF  26068.41871588  .00096585  00000+0  89725-3 0  9997
2 46585  53.0420 117.3157 0001115  98.6487 261.4655 15.66676236300313
STARLINK-11263 [DTC]    
1 60725U 24152F   26068.36517023  .00000522  00000+0  91667-5 0  9995
2 60725  53.1594 117.8936 0001230  77.5298 282.5858 15.69705032 88785
